GALAXY 25 (G-25)        
1 24812C 97026A   23194.00000000  .00000112  00000-0  00000-0 0  1941
2 24812   4.6734  79.7013 0013222  21.2606   8.2846  0.99041281    10
INTELSAT 5 (IS-5)   [PM]
1 24916C 97046A   23181.00000000  .00000034  00000-0  00000-0 0  1813
2 24916   8.0377  58.2842 0005152  63.9991 321.6585  1.00275698    17
INTELSAT 5 (IS-5)       
1 24916C 97046A   23194.00000000  .00000034  00000-0  00000-0 0  1941
2 24916   8.0663  58.1959 0004519  74.9813 323.5507  1.00276493    13
GALAXY 11 (G-11)        
1 26038C 99071A   23193.88406250 -.00000072  00000-0  00000-0 0  1932
2 26038   3.9923  83.3110 0002177  99.0210 333.3150  1.00271620    19
INTELSAT 9 (IS-9)   [PM]
1 26451C 00043A   23191.77101852 -.00000191  00000-0  00000-0 0  1918
2 26451   8.0444  58.4120 0004371  17.1196  80.4662  1.00268710    12
INTELSAT 9 (IS-9)       
1 26451C 00043A   23194.00000000 -.00000191  00000-0  00000-0 0  1943
2 26451   8.0509  58.3785 0001479 290.3049 251.9006  1.00274920    15
INTELSAT 1R (IS-1R)     
1 26608C 00072A   23193.88406250 -.00000047  00000-0  00000-0 0  1930
2 26608   5.4511  75.9631 0001926 114.5247 215.3619  1.00271167    16
INTELSAT 10 (IS-10) [PM]
1 26766C 01019A   23186.55839120  .00000127  00000-0  00000-0 0  1869
2 26766   6.4884  70.0020 0002191  13.6153 218.4808  1.00271087    18
INTELSAT 10 (IS-10)     
1 26766C 01019A   23194.00000000  .00000127  00000-0  00000-0 0  1944
2 26766   6.5087  69.8842 0004256  38.7391 359.7516  1.00275158    16
INTELSAT 901            
1 26824C 01024A   23194.00000000 -.00000108  00000-0  00000-0 0  1945
2 26824   0.0433 264.7983 0001020 247.2045 111.0876  1.00270347    19
INTELSAT 902            
1 26900C 01039A   23194.00000000 -.00000192  00000-0  00000-0 0  1949
2 26900   3.3941  84.5969 0002261  12.4119 143.5083  1.00271639    13
INTELSAT 902        [PM]
1 26900C 01039A   23197.80104167 -.00000192  00000-0  00000-0 0  1972
2 26900   3.4031  84.6032 0002611  20.7985  67.2311  1.00272487    16
INTELSAT 904            
1 27380C 02007A   23194.00000000 -.00000123  00000-0  00000-0 0  1942
2 27380   4.2196  81.7068 0002222  14.0274 165.3778  1.00273417    13
INTELSAT 904        [PM]
1 27380C 02007A   23202.84138889 -.00000123  00000-0  00000-0 0  2021
2 27380   4.2355  81.6509 0003051  25.1555 105.9264  1.00271437    15
INTELSAT 905        [PM]
1 27438C 02027A   23191.65394676 -.00000094  00000-0  00000-0 0  1915
2 27438   4.0350  82.4007 0003136  21.0680  35.7464  1.00272976    13
INTELSAT 905            
1 27438C 02027A   23194.00000000 -.00000094  00000-0  00000-0 0  1945
2 27438   4.0430  82.3799 0002172   6.4794 177.2492  1.00273700    10
GALAXY 3C (G-3C)        
1 27445C 02030A   23193.88406250 -.00000062  00000-0  00000-0 0  1933
2 27445   0.9598  90.3235 0001908 111.4845 312.0790  1.00271721    13
INTELSAT 906        [PM]
1 27513C 02041A   23188.03730324  .00000105  00000-0  00000-0 0  1885
2 27513   3.0479  86.1018 0004071  14.4899 261.7207  1.00269219    10
INTELSAT 906            
1 27513C 02041A   23194.00000000  .00000105  00000-0  00000-0 0  1947
2 27513   3.0657  85.9449 0003600  20.2330 248.5668  1.00272163    11
GALAXY 12 (G-12)        
1 27715C 03013B   23194.00000000  .00000187  00000-0  00000-0 0  1941
2 27715   4.2533  81.4022 0002352  19.0064  53.1050  1.00270471    17
GALAXY 12 (G-12)    [PM]
1 27715C 03013B   23199.55237269  .00000187  00000-0  00000-0 0  1990
2 27715   4.2651  81.4018 0001014  67.0168 209.4305  1.00269276    15
GALAXY 23 (G-23)        
1 27854C 03034A   23194.00000000  .00000103  00000-0  00000-0 0  1946
2 27854   0.4266  93.9625 0002748  22.7524  52.8936  1.00273147    12
GALAXY 23 (G-23)    [PM]
1 27854C 03034A   23204.52928241  .00000103  00000-0  00000-0 0  2043
2 27854   0.4471  94.1487 0002976  30.3938 246.0958  1.00271404    11
GALAXY 13               
1 27954C 03044A   23194.00000000  .00000138  00000-0  00000-0 0  1946
2 27954   0.0214 306.0143 0001820 175.1632  42.4364  1.00269877    13
GALAXY 13           [PM]
1 27954C 03044A   23194.95490741  .00000138  00000-0  00000-0 0  1945
2 27954   0.0145 321.6710 0001836 161.1808  25.4646  1.00270299    10
INTELSAT 10-02          
1 28358C 04022A   23193.88406250  .00000054  00000-0  00000-0 0  1930
2 28358   0.0030  51.8291 0000857 107.4688  88.4423  1.00269765    17
GALAXY 28 (G-28)    [PM]
1 28702C 05022A   23191.96642361 -.00000095  00000-0  00000-0 0  1910
2 28702   0.5249  91.3893 0001627  72.8021  23.3188  1.00271811    17
GALAXY 28 (G-28)        
1 28702C 05022A   23193.88406250 -.00000095  00000-0  00000-0 0  1930
2 28702   0.5314  91.3364 0001720  77.3289 351.0846  1.00271830    16
GALAXY 14 (G-14)    [PM]
1 28790C 05030A   23192.68055556  .00000245  00000-0  00000-0 0  1927
2 28790   2.2521  87.8667 0001573   7.9489 111.3916  1.00268988    10
GALAXY 14 (G-14)        
1 28790C 05030A   23194.00000000  .00000245  00000-0  00000-0 0  1941
2 28790   2.2564  87.8556 0001176  14.8295 220.8097  1.00270587    19
GALAXY 16 (G-16)        
1 29236C 06023A   23194.00000000 -.00000037  00000-0  00000-0 0  1940
2 29236   0.0550 258.6373 0002351 259.0081  33.9671  1.00273052    14
GALAXY 16 (G-16)    [PM]
1 29236C 06023A   23194.62341435 -.00000039  00000-0  00000-0 0  1940
2 29236   0.0587 190.2214 0002253 165.2023  61.2205  1.00271655    18
GALAXY 17 (G-17)    [PM]
1 31307C 07016B   23191.95064815 -.00000116  00000-0  00000-0 0  1915
2 31307   0.2440  93.8594 0001916  52.9603  38.9966  1.00272089    17
GALAXY 17 (G-17)        
1 31307C 07016B   23194.00000000 -.00000116  00000-0  00000-0 0  1943
2 31307   0.2510  93.7081 0001979  57.9556  53.9410  1.00272085    13
INTELSAT 11 (IS-11)     
1 32253C 07044B   23194.00000000 -.00000178  00000-0  00000-0 0  1943
2 32253   0.7862  91.8601 0002953  30.3519 125.3920  1.00272450    19
INTELSAT 11 (IS-11) [PM]
1 32253C 07044B   23194.34844907 -.00000178  00000-0  00000-0 0  1942
2 32253   0.7872  91.8627 0002927  31.6829 249.8446  1.00272473    17
HORIZONS-2              
1 32388C 07063B   23194.00000000 -.00000162  00000-0  00000-0 0  1946
2 32388   0.0039   9.8673 0002200 114.8378  92.0851  1.00273076    19
HORIZONS-2          [PM]
1 32388C 07063B   23199.89482639 -.00000161  00000-0  00000-0 0  1994
2 32388   0.0096  73.9278 0002102  56.9337  53.8871  1.00273459    19
GALAXY 18 (G-18)    [PM]
1 32951C 08024A   23193.54652778  .00000087  00000-0  00000-0 0  1937
2 32951   0.0042 351.6154 0002834 124.7844 247.5219  1.00270506    12
GALAXY 18 (G-18)        
1 32951C 08024A   23194.00000000  .00000102  00000-0  00000-0 0  1943
2 32951   0.0026 359.8627 0002814 116.9954  50.7586  1.00270436    15
GALAXY 18 (G-18)    [PM]
1 32951C 08024A   23200.56458333  .00000118  00000-0  00000-0 0  2003
2 32951   0.0082  82.9362 0002857  43.6385 250.7574  1.00270887    17
INTELSAT 25 (IS-25) [PM]
1 33153C 08034A   23193.60416667 -.00000134  00000-0  00000-0 0  1939
2 33153   0.0078 353.9061 0002689 120.6229   1.6907  1.00272074    13
INTELSAT 25 (IS-25)     
1 33153C 08034A   23194.00000000 -.00000132  00000-0  00000-0 0  1943
2 33153   0.0064   1.4078 0002717 114.3287 143.3732  1.00272148    19
INTELSAT 25 (IS-25) [PM]
1 33153C 08034A   23197.86597222 -.00000205  00000-0  00000-0 0  1971
2 33153   0.0058  48.8598 0002667  73.1158  92.6937  1.00272333    16
GALAXY 19 (G-19)    [PM]
1 33376C 08045A   23192.48689815 -.00000162  00000-0  00000-0 0  1920
2 33376   0.0017   7.6188 0002894 120.2464 239.5272  1.00272044    15
GALAXY 19 (G-19)        
1 33376C 08045A   23194.00000000 -.00000105  00000-0  00000-0 0  1942
2 33376   0.0021  31.3533 0002898  98.4599  63.7876  1.00271892    14
INTELSAT 14 (IS-14)     
1 36097C 09064A   23194.00000000 -.00000183  00000-0  00000-0 0  1943
2 36097   0.0100  52.5439 0002250  68.2869 124.7840  1.00272801    12
INTELSAT 14 (IS-14) [PM]
1 36097C 09064A   23198.06984954 -.00000188  00000-0  00000-0 0  1981
2 36097   0.0138 330.8832 0002217 157.8847 146.0100  1.00270924    16
INTELSAT 15 (IS-15)     
1 36106C 09067A   23194.00000000 -.00000095  00000-0  00000-0 0  1949
2 36106   0.0162 354.5323 0002010 124.4719 256.7472  1.00271083    19
INTELSAT 15 (IS-15) [PM]
1 36106C 09067A   23194.53899306 -.00000095  00000-0  00000-0 0  1942
2 36106   0.0150   0.0621 0002017 117.3316  92.9246  1.00272300    13
INTELSAT 16 (IS-16)     
1 36397C 10006A   23194.00000000 -.00000156  00000-0  00000-0 0  1944
2 36397   0.0142 353.9973 0002072 142.4519  77.9459  1.00272835    13
INTELSAT 16 (IS-16) [PM]
1 36397C 10006A   23199.93592593 -.00000155  00000-0  00000-0 0  1998
2 36397   0.0097  48.2073 0002015  92.6298  56.3470  1.00273304    10
INTELSAT 17 (IS-17)     
1 37238C 10065B   23194.00000000  .00000121  00000-0  00000-0 0  1945
2 37238   0.0046 112.0142 0002368   9.5657 235.0308  1.00270977    12
INTELSAT 17 (IS-17) [PM]
1 37238C 10065B   23197.76077546  .00000032  00000-0  00000-0 0  1974
2 37238   0.0302 201.7984 0002362 287.0911 145.3016  1.00271338    18
INTELSAT NEW DAWN       
1 37392C 11016A   23194.00000000  .00000246  00000-0  00000-0 0  1941
2 37392   0.0132  89.9037 0000722  56.7062 176.8002  1.00272772    18
INTELSAT NEW DAWN   [PM]
1 37392C 11016A   23197.21850694  .00000278  00000-0  00000-0 0  1977
2 37392   0.0418 180.4106 0000770  28.0814 196.7258  1.00272254    18
INTELSAT 18 (IS-18)     
1 37834C 11056A   23194.00000000  .00000142  00000-0  00000-0 0  1941
2 37834   0.0057  38.7163 0001619  76.9489 354.9423  1.00270390    10
INTELSAT 18 (IS-18) [PM]
1 37834C 11056A   23197.95315972  .00000149  00000-0  00000-0 0  1975
2 37834   0.0001  29.3523 0001581  96.1673 332.1162  1.00271849    10
INTELSAT 22 (IS-22)     
1 38098C 12011A   23194.00000000 -.00000062  00000-0  00000-0 0  1948
2 38098   0.0019 356.9367 0002305 129.4472 236.3206  1.00271098    19
